[{"OBJECT_NAME":"SEAHAWK-1","OBJECT_ID":"2018-099BQ","EPOCH":"2026-03-09T17:26:19.455648","MEAN_MOTION":15.21024633,"ECCENTRICITY":0.00069788,"INCLINATION":97.4094,"RA_OF_ASC_NODE":122.7887,"ARG_OF_PERICENTER":302.9769,"MEAN_ANOMALY":57.0796,"EPHEMERIS_TYPE":0,"CLASSIFICATION_TYPE":"U","NORAD_CAT_ID":43820,"ELEMENT_SET_NO":999,"REV_AT_EPOCH":39740,"BSTAR":0.00046242233,"MEAN_MOTION_DOT":0.00010205,"MEAN_MOTION_DDOT":0},{"OBJECT_NAME":"LANDSAT 5","OBJECT_ID":"1984-021A","EPOCH":"2026-03-09T17:06:39.595392","MEAN_MOTION":15.03956175,"ECCENTRICITY":0.00705197,"INCLINATION":98.0698,"RA_OF_ASC_NODE":343.5816,"ARG_OF_PERICENTER":90.3041,"MEAN_ANOMALY":270.6265,"EPHEMERIS_TYPE":0,"CLASSIFICATION_TYPE":"U","NORAD_CAT_ID":14780,"ELEMENT_SET_NO":999,"REV_AT_EPOCH":77643,"BSTAR":0.00029889959,"MEAN_MOTION_DOT":4.286e-5,"MEAN_MOTION_DDOT":0}]
